#cV2022  1  1  0  0  0.00000000    1905   SLR   ECF FIT NSGF
## 2190 518400.00000000   180.00000000 59580 0.0000000000000
+    1   L56  0  0  0  0  0  0  0  0  0  0  0  0  0  0  0  0
+          0  0  0  0  0  0  0  0  0  0  0  0  0  0  0  0  0
+          0  0  0  0  0  0  0  0  0  0  0  0  0  0  0  0  0
+          0  0  0  0  0  0  0  0  0  0  0  0  0  0  0  0  0
+          0  0  0  0  0  0  0  0  0  0  0  0  0  0  0  0  0
++         0  0  0  0  0  0  0  0  0  0  0  0  0  0  0  0  0
++         0  0  0  0  0  0  0  0  0  0  0  0  0  0  0  0  0
++         0  0  0  0  0  0  0  0  0  0  0  0  0  0  0  0  0
++         0  0  0  0  0  0  0  0  0  0  0  0  0  0  0  0  0
++         0  0  0  0  0  0  0  0  0  0  0  0  0  0  0  0  0
%c L  cc UTC ccc cccc cccc cccc cccc ccccc ccccc ccccc ccccc
%c cc cc ccc ccc cccc cccc cccc cccc ccccc ccccc ccccc ccccc
%f  0.0000000  0.000000000  0.00000000000  0.000000000000000
%f  0.0000000  0.000000000  0.00000000000  0.000000000000000
%i    0    0    0    0      0      0      0      0         0
%i    0    0    0    0      0      0      0      0         0
/*                                                          
/* Earth-centered-fixed orbital predictions from SGF ILRS AC
/* The underlying ECF frame is that of IERS/ITRF            
/* Note: Solution based on 4-day long arc                   
/*                                                          
*  2022  1  3 16 36  0.00000000
PL56  -6022.946099  -3516.726465   1708.289855
VL56 -23749.651000   5872.911000 -71431.135000
*  2022  1  3 16 39  0.00000000
PL56  -6341.691239  -3346.060797    400.205188
VL56 -11532.739000  12981.492000 -73487.397000
*  2022  1  3 16 42  0.00000000
PL56  -6434.675841  -3054.074935   -921.848892
VL56   1258.034900  19311.018000 -72978.855000
*  2022  1  3 16 45  0.00000000
PL56  -6295.782293  -2656.927034  -2211.744721
VL56  14151.819000  24631.681000 -69925.223000
*  2022  1  3 16 48  0.00000000
PL56  -5927.465166  -2174.485805  -3424.533084
VL56  26670.172000  28762.286000 -64437.169000
*  2022  1  3 16 51  0.00000000
PL56  -5340.716572  -1629.394099  -4518.040157
VL56  38346.066000  31576.634000 -56711.273000
*  2022  1  3 16 54  0.00000000
PL56  -4554.696745  -1046.042241  -5454.343397
VL56  48741.852000  33007.123000 -47021.684000
*  2022  1  3 16 57  0.00000000
PL56  -3596.052433   -449.500847  -6201.072113
VL56  57465.898000  33045.677000 -35709.070000
*  2022  1  3 17  0  0.00000000
PL56  -2497.959263    135.536932  -6732.488106
VL56  64186.522000  31741.799000 -23167.432000
*  2022  1  3 17  3  0.00000000
PL56  -1298.937170    685.756434  -7030.320667
VL56  68643.267000  29198.253000  -9830.107100
*  2022  1  3 17  6  0.00000000
PL56    -41.486837   1180.128018  -7084.345115
VL56  70655.455000  25565.052000   3844.668100
*  2022  1  3 17  9  0.00000000
PL56   1229.404570   1600.692904  -6892.701668
VL56  70128.306000  21032.027000  17388.050000
*  2022  1  3 17 12  0.00000000
PL56   2467.850542   1933.205786  -6461.959263
VL56  67057.239000  15820.492000  30334.837000
*  2022  1  3 17 15  0.00000000
PL56   3628.706530   2167.617380  -5806.912835
VL56  61529.313000  10173.737000  42238.677000
*  2022  1  3 17 18  0.00000000
PL56   4669.209233   2298.379417  -4950.114359
VL56  53721.544000   4346.847700  52686.362000
*  2022  1  3 17 21  0.00000000
PL56   5550.565998   2324.564383  -3921.147774
VL56  43897.076000  -1403.649200  61312.186000
*  2022  1  3 17 24  0.00000000
PL56   6239.437536   2249.793782  -2755.651390
VL56  32397.120000  -6830.589700  67811.277000
*  2022  1  3 17 27  0.00000000
PL56   6709.250710   2081.974604  -1494.111864
VL56  19630.152000 -11706.673000  71951.621000
*  2022  1  3 17 30  0.00000000
PL56   6941.280154   1832.852329   -180.458804
VL56   6057.001300 -15834.282000  73584.057000
*  2022  1  3 17 33  0.00000000
PL56   6925.436841   1517.396118   1139.489798
VL56  -7826.796900 -19054.138000  72648.766000
*  2022  1  3 17 36  0.00000000
PL56   6660.718812   1153.046174   2419.664213
VL56 -21510.349000 -21251.883000  69177.753000
*  2022  1  3 17 39  0.00000000
PL56   6155.304304    758.860010   3615.395565
VL56 -34488.053000 -22362.733000  63294.061000
*  2022  1  3 17 42  0.00000000
PL56   5426.274348    354.599478   4685.011886
VL56 -46279.644000 -22373.339000  55206.519000
*  2022  1  3 17 45  0.00000000
PL56   4498.984975    -40.192160   5591.306002
VL56 -56448.729000 -21320.988000  45200.681000
*  2022  1  3 17 48  0.00000000
PL56   3406.127470   -407.079305   6302.823550
VL56 -64619.167000 -19290.723000  33627.962000
*  2022  1  3 17 51  0.00000000
PL56   2186.521304   -729.548109   6794.926332
VL56 -70488.096000 -16410.046000  20892.129000
*  2022  1  3 17 54  0.00000000
PL56    883.700731   -993.711685   7050.607881
VL56 -73836.002000 -12842.136000   7435.004300
*  2022  1  3 17 57  0.00000000
PL56   -455.657131  -1188.883618   7061.047789
VL56 -74534.110000  -8777.981200  -6278.305400
*  2022  1  3 18  0  0.00000000
PL56  -1783.406695  -1307.998620   6825.890982
VL56 -72548.533000  -4427.419200 -19774.793000
*  2022  1  3 18  3  0.00000000
PL56  -3051.654223  -1347.866660   6353.254657
VL56 -67941.113000     -9.545231 -32588.610000
*  2022  1  3 18  6  0.00000000
PL56  -4214.477395  -1309.252628   5659.470523
VL56 -60868.614000   4256.904700 -44275.364000
*  2022  1  3 18  9  0.00000000
PL56  -5229.601813  -1196.783149   4768.559636
VL56 -51578.626000   8163.159800 -54427.520000
*  2022  1  3 18 12  0.00000000
PL56  -6059.971772  -1018.681433   3711.436638
VL56 -40401.808000  11519.920000 -62689.047000
*  2022  1  3 18 15  0.00000000
PL56  -6675.149132   -786.336841   2524.863254
VL56 -27740.695000  14166.067000 -68768.301000
*  2022  1  3 18 18  0.00000000
PL56  -7052.485629   -513.727085   1250.182815
VL56 -14055.732000  15976.269000 -72449.642000
*  2022  1  3 18 21  0.00000000
PL56  -7178.013338   -216.717633    -68.134066
VL56    152.228750  16866.940000 -73602.464000
*  2022  1  3 18 24  0.00000000
PL56  -7046.996469     87.728983  -1384.076943
VL56  14361.680000  16800.256000 -72186.882000
*  2022  1  3 18 27  0.00000000
PL56  -6664.115292    382.395345  -2651.745368
VL56  28051.380000  15785.781000 -68254.902000
*  2022  1  3 18 30  0.00000000
PL56  -6043.277581    650.659012  -3826.989292
VL56  40720.685000  13879.762000 -61948.358000
*  2022  1  3 18 33  0.00000000
PL56  -5207.065116    877.309408  -4868.976004
VL56  51909.542000  11182.130000 -53492.607000
*  2022  1  3 18 36  0.00000000
PL56  -4185.845364   1049.290430  -5741.610320
VL56  61215.563000   7831.316700 -43186.821000
*  2022  1  3 18 39  0.00000000
PL56  -3016.604183   1156.333308  -6414.758312
VL56  68307.769000   3997.329700 -31392.083000
*  2022  1  3 18 42  0.00000000
PL56  -1741.559155   1191.452854  -6865.241771
VL56  72937.289000   -126.406720 -18517.891000
*  2022  1  3 18 45  0.00000000
PL56   -406.612455   1151.291890  -7077.584090
VL56  74944.607000  -4331.744100  -5008.000100
*  2022  1  3 18 48  0.00000000
PL56    940.298053   1036.302551  -7044.496068
VL56  74263.496000  -8405.112200   8673.966500
*  2022  1  3 18 51  0.00000000
PL56   2250.897846    850.759893  -6767.107351
VL56  70922.909000 -12136.890000  22058.625000
*  2022  1  3 18 54  0.00000000
PL56   3478.287162    602.606601  -6254.935586
VL56  65046.167000 -15330.705000  34685.800000
*  2022  1  3 18 57  0.00000000
PL56   4578.608562    303.132800  -5525.586518
VL56  56847.110000 -17812.452000  46119.428000
*  2022  1  3 19  0  0.00000000
PL56   5512.620083    -33.500051  -4604.194581
VL56  46623.506000 -19438.505000  55961.504000
*  2022  1  3 19  3  0.00000000
PL56   6247.128199   -390.875453  -3522.607631
VL56  34747.714000 -20103.035000  63866.373000
*  2022  1  3 19  6  0.00000000
PL56   6756.220955   -751.058114  -2318.325487
VL56  21654.105000 -19743.971000  69553.681000
*  2022  1  3 19  9  0.00000000
PL56   7022.247103  -1095.421002  -1033.219113
VL56   7823.328100 -18347.012000  72819.816000
*  2022  1  3 19 12  0.00000000
PL56   7036.488432  -1405.524993    287.933055
VL56  -6235.925000 -15947.437000  73546.514000
*  2022  1  3 19 15  0.00000000
PL56   6799.486142  -1664.009246   1599.034876
VL56 -20006.927000 -12629.481000  71706.231000
*  2022  1  3 19 18  0.00000000
PL56   6320.999444  -1855.448585   2854.324536
VL56 -32985.634000  -8523.249100  67363.573000
*  2022  1  3 19 21  0.00000000
PL56   5619.594170  -1967.132371   4010.016660
VL56 -44700.857000  -3799.157000  60672.682000
*  2022  1  3 19 24  0.00000000
PL56   4721.882957  -1989.725503   5025.858974
VL56 -54732.507000   1339.556000  51870.619000
*  2022  1  3 19 27  0.00000000
PL56   3661.464042  -1917.780122   5866.540710
VL56 -62726.762000   6665.812000  41267.620000
*  2022  1  3 19 30  0.00000000
PL56   2477.612458  -1750.076171   6502.907154
VL56 -68408.442000  11938.622000  29235.204000
*  2022  1  3 19 33  0.00000000
PL56   1213.783096  -1489.779075   6912.938606
VL56 -71589.436000  16913.434000  16192.291000
*  2022  1  3 19 36  0.00000000
PL56    -84.008141  -1144.409718   7082.474178
VL56 -72173.842000  21352.621000   2590.650200
*  2022  1  3 19 39  0.00000000
PL56  -1368.866266   -725.627243   7005.666941
VL56 -70159.902000  25035.642000 -11100.213000
*  2022  1  3 19 42  0.00000000
PL56  -2594.703556   -248.833757   6685.167974
VL56 -65638.737000  27768.694000 -24408.031000
*  2022  1  3 19 45  0.00000000
PL56  -3717.883266    267.387950   6132.042439
VL56 -58790.758000  29393.587000 -36872.693000
*  2022  1  3 19 48  0.00000000
PL56  -4698.777133    801.986905   5365.416631
VL56 -49879.676000  29795.453000 -48061.178000
*  2022  1  3 19 51  0.00000000
PL56  -5503.187781   1332.284335   4411.854295
VL56 -39243.439000  28909.207000 -57582.533000
*  2022  1  3 19 54  0.00000000
PL56  -6103.582377   1834.914249   3304.470591
VL56 -27282.374000  26724.186000 -65102.012000
*  2022  1  3 19 57  0.00000000
PL56  -6480.085204   2286.827326   2081.804307
VL56 -14444.349000  23286.437000 -70353.701000
EOF
